OBJECT_NAME,OBJECT_ID,EPOCH,MEAN_MOTION,ECCENTRICITY,INCLINATION,RA_OF_ASC_NODE,ARG_OF_PERICENTER,MEAN_ANOMALY,EPHEMERIS_TYPE,CLASSIFICATION_TYPE,NORAD_CAT_ID,ELEMENT_SET_NO,REV_AT_EPOCH,BSTAR,MEAN_MOTION_DOT,MEAN_MOTION_DDOT
GEOSCAN 3 (RS92S3),2025-155T,2026-07-22T13:37:47.623584,15.36500273,.00081918,97.4557,173.8910,68.3491,291.8624,0,U,64893,999,8628,.56340559E-3,.20034E-3,0
INNOSAT 3 (RS92S0),2025-155U,2026-07-22T13:03:10.538208,15.46250989,.00077363,97.4499,175.9558,74.3914,285.8189,0,U,64894,999,8642,.88832328E-3,.43846E-3,0
KNACKSAT-2,1998-067XZ,2026-07-22T11:38:31.436448,15.62993156,.00075868,51.6274,116.5146,352.0545,8.0328,0,U,67683,999,2579,.62866951E-3,.58135E-3,0
