GEOSCAN-3 (RS92S3)
1 64893U 25155T   26203.56791231  .00020034  00000-0  56341-3 0  9996
2 64893  97.4557 173.8910 0008192  68.3491 291.8624 15.36500273 86287
INNOSAT3 (RS92S0)
1 64894U 25155U   26203.54387197  .00043846  00000-0  88832-3 0  9993
2 64894  97.4499 175.9558 0007736  74.3914 285.8189 15.46250989 86426
KNACKSAT-2
1 67683U 98067XZ  26203.48508607  .00058135  00000-0  62867-3 0  9995
2 67683  51.6274 116.5146 0007587 352.0545   8.0328 15.62993156 25793
